{
    "links": {
        "self": "http://www.neowsapp.com/rest/v1/neo/3759251?api_key=iIulBulltgU6a56xZRHN4H3l9WmuAYTsLGpBGhQ2"
    },
    "id": "3759251",
    "neo_reference_id": "3759251",
    "name": "(2016 RJ18)",
    "designation": "2016 RJ18",
    "nasa_jpl_url": "http://ssd.jpl.nasa.gov/sbdb.cgi?sstr=3759251",
    "absolute_magnitude_h": 23.5,
    "estimated_diameter": {
        "kilometers": {
            "estimated_diameter_min": 0.0530340723,
            "estimated_diameter_max": 0.1185877909
        },
        "meters": {
            "estimated_diameter_min": 53.0340723319,
            "estimated_diameter_max": 118.5877908577
        },
        "miles": {
            "estimated_diameter_min": 0.0329538346,
            "estimated_diameter_max": 0.0736870142
        },
        "feet": {
            "estimated_diameter_min": 173.9963058693,
            "estimated_diameter_max": 389.0675677576
        }
    },
    "is_potentially_hazardous_asteroid": false,
    "close_approach_data": [
        {
            "close_approach_date": "2016-08-29",
            "close_approach_date_full": "2016-Aug-29 13:47",
            "epoch_date_close_approach": 1472478420000,
            "relative_velocity": {
                "kilometers_per_second": "4.525171832",
                "kilometers_per_hour": "16290.6185950901",
                "miles_per_hour": "10122.3568709325"
            },
            "miss_distance": {
                "astronomical": "0.1102533091",
                "lunar": "42.8885372399",
                "kilometers": "16493660.201811617",
                "miles": "10248685.2115576346"
            },
            "orbiting_body": "Earth"
        },
        {
            "close_approach_date": "2155-08-01",
            "close_approach_date_full": "2155-Aug-01 12:44",
            "epoch_date_close_approach": 5856410640000,
            "relative_velocity": {
                "kilometers_per_second": "7.8753904734",
                "kilometers_per_hour": "28351.405704255",
                "miles_per_hour": "17616.4609499578"
            },
            "miss_distance": {
                "astronomical": "0.0889559328",
                "lunar": "34.6038578592",
                "kilometers": "13307618.070743136",
                "miles": "8268970.4319058368"
            },
            "orbiting_body": "Mars"
        },
        {
            "close_approach_date": "2165-09-09",
            "close_approach_date_full": "2165-Sep-09 14:34",
            "epoch_date_close_approach": 6175406040000,
            "relative_velocity": {
                "kilometers_per_second": "5.6196536659",
                "kilometers_per_hour": "20230.7531971713",
                "miles_per_hour": "12570.6032852091"
            },
            "miss_distance": {
                "astronomical": "0.1210305934",
                "lunar": "47.0809008326",
                "kilometers": "18105918.977476058",
                "miles": "11250496.3601552804"
            },
            "orbiting_body": "Earth"
        },
        {
            "close_approach_date": "2180-01-12",
            "close_approach_date_full": "2180-Jan-12 05:19",
            "epoch_date_close_approach": 6627935940000,
            "relative_velocity": {
                "kilometers_per_second": "8.1135774522",
                "kilometers_per_hour": "29208.8788280398",
                "miles_per_hour": "18149.2614029006"
            },
            "miss_distance": {
                "astronomical": "0.0965351091",
                "lunar": "37.5521574399",
                "kilometers": "14441446.701577617",
                "miles": "8973498.8736884346"
            },
            "orbiting_body": "Mars"
        },
        {
            "close_approach_date": "2187-09-14",
            "close_approach_date_full": "2187-Sep-14 08:07",
            "epoch_date_close_approach": 6870038820000,
            "relative_velocity": {
                "kilometers_per_second": "6.6582142562",
                "kilometers_per_hour": "23969.5713224435",
                "miles_per_hour": "14893.7594697705"
            },
            "miss_distance": {
                "astronomical": "0.14487996",
                "lunar": "56.35830444",
                "kilometers": "21673733.4216852",
                "miles": "13467433.45504776"
            },
            "orbiting_body": "Earth"
        }
    ],
    "orbital_data": {
        "orbit_id": "14",
        "orbit_determination_date": "2017-04-06 08:24:04",
        "first_observation_date": "2016-09-06",
        "last_observation_date": "2016-10-30",
        "data_arc_in_days": 54,
        "observations_used": 48,
        "orbit_uncertainty": "6",
        "minimum_orbit_intersection": ".109891",
        "jupiter_tisserand_invariant": "3.949",
        "epoch_osculation": "2459000.5",
        "eccentricity": ".3944021711870507",
        "semi_major_axis": "1.81440680713201",
        "inclination": "4.909179290904489",
        "ascending_node_longitude": "20.66490791145124",
        "orbital_period": "892.6895003573345",
        "perihelion_distance": "1.098800822982581",
        "perihelion_argument": "312.1141097330922",
        "aphelion_distance": "2.530012791281439",
        "perihelion_time": "2459411.010644438447",
        "mean_anomaly": "194.451024753081",
        "mean_motion": ".4032757188875815",
        "equinox": "J2000",
        "orbit_class": {
            "orbit_class_type": "AMO",
            "orbit_class_description": "Near-Earth asteroid orbits similar to that of 1221 Amor",
            "orbit_class_range": "1.017 AU < q (perihelion) < 1.3 AU"
        }
    },
    "is_sentry_object": false
}